# From MPEC 2025-ST8
C/2025 M2 (PANSTARRS),h,11/23.3791/2027,173.2150,305.5342,96.7557,1.002141,2.720398,2000,13.4,4.0
# From MPEC 2025-R69
C/2025 M3 (PANSTARRS),h,07/05.1737/2026,137.4265,65.2656,195.3788,1.019624,6.531859,2000,9.0,4.0
# From MPEC 2025-SH3
C/2025 N2 (ATLAS),h,12/12.5057/2024,81.6627,94.4600,230.1022,1.001809,8.984153,2000,5.1,4.0
# From MPEC 2025-SH3
C/2025 O2 (MAPS),e,134.5428,332.3120,280.2462,2245,0.0000093,0.99898072,0.0000,05/23.7118/2025,2000,g 14.3,4.0
# From MPEC 2025-R69
A/2025 P1,e,117.7939,342.4175,334.5273,56.79069,0.0023030,0.96168723,0.4363,10/06.0/2025,2000,g 17.1,4.0
# From MPEC 2025-ST8
C/2025 Q1 (ATLAS),e,66.1589,326.9500,280.2331,1234,0.0000227,0.99181376,0.0000,07/11.9008/2024,2000,g  3.8,4.0
# From MPEC 2025-ST8
P/2025 Q2 (PANSTARRS),e,14.7853,271.0278,81.2218,3.010176,0.1887192,0.23726172,16.4140,10/06.0/2025,2000,g 17.1,4.0
# From MPEC 2025-T80
C/2025 R1 (ATLAS),e,110.0277,60.3970,77.5512,166.9658,0.0004568,0.98817005,0.0000,11/23.3354/2025,2000,g 14.0,4.0
# From MPEC 2025-T80
C/2025 R2 (SWAN),e,4.4736,335.3460,308.3194,76.53323,0.0014721,0.99341394,0.0000,09/12.8314/2025,2000,g 12.4,4.0
# From MPEC 2025-T80
C/2025 R3 (PANSTARRS),e,124.7077,38.6769,162.2630,89956,0.0000000,0.99999446,0.0000,04/19.9225/2026,2000,g 12.2,4.0
# From AJ 98, 1083
1P/Halley,e,162.2232,59.5708,112.4806,17.86371,0.0130541,0.96744258,188.8920,10/06.0/2025,2000,g  5.5,3.2
# From MPEC 2025-T80
2P/Encke,e,11.3460,334.0163,187.2790,2.218086,0.2983573,0.84718845,213.1356,10/06.0/2025,2000,g 11.5,6.0
# From AJ 76, 1135
3D-A/Biela,e,7.2158,276.6821,192.1348,3.551135,0.1472832,0.76713121,45.3441,10/06.0/2025,2000,g 11.0,6.0
# From AJ 76, 1135
3D-B/Biela,e,7.8798,276.2008,192.2557,3.540268,0.1479619,0.76785653,14.7853,10/06.0/2025,2000,g 11.0,6.0
# From MPEC 2023-FK0
4P/Faye,e,8.0016,192.9052,207.1520,3.830267,0.1314802,0.57618980,195.6497,10/06.0/2025,2000,g  8.0,6.0
# From QJ 27, 116
5D/Brorsen,e,18.6311,94.9068,20.3047,3.158454,0.1755870,0.83791547,158.4778,10/06.0/2025,2000,g 10.5,6.0
# From MPEC 2022-WD2
6P/d'Arrest,e,19.5009,138.9513,178.0418,3.497718,0.1506701,0.61199573,223.1255,10/06.0/2025,2000,g  7.5,16.0
# From MPEC 2023-A50
7P/Pons-Winnecke,e,22.4198,93.1845,173.1391,3.367338,0.1595049,0.65631750,250.1686,10/06.0/2025,2000,g 10.0,6.0
# From MPEC 2022-HC2
8P/Tuttle,e,54.9848,270.1771,207.4786,5.705792,0.0723153,0.82075341,108.4148,10/06.0/2025,2000,g  8.0,8.0
# From MPEC 2025-SH3
9P/Tempel,e,10.5902,67.2031,184.4815,3.294170,0.1648485,0.46995775,218.9778,10/06.0/2025,2000,g  5.5,10.0
# From MPC185662
10P/Tempel,e,12.0272,117.7986,195.4849,3.064183,0.1837520,0.53737977,304.8488,10/06.0/2025,2000,g  5.0,10.0
# From MPEC 2024-R10
11P/Tempel-Swift-LINEAR,e,14.4320,238.8610,168.0566,3.282964,0.1656933,0.57741108,293.7394,10/06.0/2025,2000,g 17.0,4.0
# From MPC185662
12P/Pons-Brooks,e,74.1864,255.8577,199.0151,17.24548,0.0137623,0.95469626,7.3332,10/06.0/2025,2000,g  5.0,6.0
# From MPEC 2025-ST8
13P/Olbers,e,44.6653,85.8466,64.4231,16.92005,0.0141612,0.93053465,6.5552,10/06.0/2025,2000,g  5.0,6.0
# From MPEC 2025-R69
14P/Wolf,e,27.9175,202.0187,159.2028,4.256113,0.1122495,0.35660087,320.9329,10/06.0/2025,2000,g  5.5,12.0
# From MPEC 2022-ED3
15P/Finlay,e,6.7857,13.7491,347.8610,3.511213,0.1498023,0.71599983,231.6437,10/06.0/2025,2000,g 12.0,4.0
# From MPEC 2022-X67
16P/Brooks,e,3.0099,138.8190,245.3789,3.662361,0.1406249,0.48549042,229.4903,10/06.0/2025,2000,g  7.5,10.0
# From MPEC 2023-J29
17P/Holmes,e,19.0054,326.6035,24.6079,3.641941,0.1418093,0.42620522,239.7772,10/06.0/2025,2000,g 10.0,6.0
# From QJ 19, 80
18D/Perrine-Mrkos,e,17.662,158.450,238.195,3.88008,0.128956,0.5894778,51.954,10/06.0/2025,2000,g  9.0,4.0
# From MPEC 2024-YC7
19P/Borrelly,e,29.3139,74.2155,352.0126,3.608545,0.1437825,0.63772074,192.8951,10/06.0/2025,2000,g  4.5,10.0
# From MPEC 2024-YC7
21P/Giacobini-Zinner,e,32.0503,195.3197,172.9396,3.491848,0.1510501,0.71107787,29.4004,10/06.0/2025,2000,g  9.0,6.0
# From MPEC 2024-L77
22P/Kopff,e,4.8811,120.0547,163.1277,3.401710,0.1570935,0.56368348,202.2737,10/06.0/2025,2000,g  3.0,10.4
# From MPC 14747
23P/Brorsen-Metcalf,e,19.4876,311.1047,130.0572,16.93906,0.0141374,0.97257023,0.0000,06/04.7886/2059,2000,g  7.8,3.2
# From MPEC 2025-T80
24P/Schaumasse,e,11.5023,78.2724,58.4855,4.058328,0.1205545,0.70827575,348.6263,10/06.0/2025,2000,g  6.5,14.0
# From NK 378
25D/Neujmin 2,e,2.8087,279.9691,244.8033,3.221748,0.1704381,0.55045125,25.1530,10/06.0/2025,2000,g 12.5,6.0
# From MPEC 2024-TP3
26P/Grigg-Skjellerup,e,22.4399,211.5293,2.1173,3.014286,0.1883334,0.64066575,122.5458,10/06.0/2025,2000,g 12.0,16.0
# From MPC 78188
27P/Crommelin,e,29.4273,250.7007,195.8559,9.179034,0.0354412,0.91965055,183.4762,10/06.0/2025,2000,g 12.0,8.0
# From MPEC 2025-ST8
28P/Neujmin,e,14.2902,346.4183,347.4392,6.979781,0.0534492,0.77255712,89.3226,10/06.0/2025,2000,g  8.5,6.0
# From MPEC 2025-ST8
29P/Schwassmann-Wachmann,e,9.3553,312.4022,51.9892,6.057498,0.0661095,0.04311350,155.4406,10/06.0/2025,2000,g  4.0,4.0
# From MPEC 2025-ST8
30P/Reinmuth,e,8.0535,117.2305,9.5282,3.735931,0.1364916,0.51443834,56.6084,10/06.0/2025,2000,g  9.5,6.0
# From MPEC 2025-ST8
31P/Schwassmann-Wachmann,e,4.5498,114.1135,17.9527,4.230282,0.1132792,0.19355009,258.6239,10/06.0/2025,2000,g  5.0,8.0
# From MPC185663
32P/ComasSola,e,9.9193,54.5331,54.7214,4.554945,0.1013863,0.55532919,54.0670,10/06.0/2025,2000,g  6.5,8.0
# From MPC184416
33P/Daniel,e,22.2940,66.2789,20.2575,4.091386,0.1190963,0.45188055,39.1979,10/06.0/2025,2000,g 10.0,12.0
# From QJ 9, 314
34D/Gale,e,10.5825,57.8541,218.0503,5.017891,0.0876844,0.75817777,331.6625,10/06.0/2025,2000,g  9.0,4.0
# From QJ 15, 452
35P/Herschel-Rigollet,e,64.388,356.090,29.257,28.5387,0.006465,0.9742346,0.000,04/12.6495/2092,2000,g  8.5,4.0
# From MPEC 2023-RF3
36P/Whipple,e,9.9449,181.8208,201.2075,4.141638,0.1169354,0.26799067,228.3064,10/06.0/2025,2000,g  8.5,6.0
# From MPC184416
37P/Forbes,e,8.9478,314.5469,330.0679,3.461682,0.1530289,0.53258241,55.0573,10/06.0/2025,2000,g 10.5,4.8
# From MPEC 2024-YC7
38P/Stephan-Oterma,e,18.4127,77.8631,359.6039,11.26813,0.0260571,0.85973399,65.6117,10/06.0/2025,2000,g  3.5,12.0
# From MPEC 2024-AF0
39P/Oterma,e,1.7349,289.0973,116.5296,6.956988,0.0537121,0.16832977,39.9329,10/06.0/2025,2000,g  7.0,6.0
# From MPC184416
40P/Vaisala,e,11.6409,128.8984,52.0479,4.946996,0.0895760,0.63137046,356.6915,10/06.0/2025,2000,g  5.5,12.0
# From MPEC 2023-SQ0
41P/Tuttle-Giacobini-Kresak,e,9.2164,140.9746,62.2085,3.087659,0.1816603,0.65972816,203.2350,10/06.0/2025,2000,g 10.0,16.0
# From MPC184416
42P/Neujmin,e,3.9883,150.1569,147.1280,4.879770,0.0914334,0.58407451,350.7699,10/06.0/2025,2000,g 13.0,6.0
# From MPEC 2025-T80
43P/Wolf-Harrington,e,9.3302,243.9837,223.7928,4.332490,0.1092943,0.43615802,6.8184,10/06.0/2025,2000,g  8.0,6.0
# From MPEC 2024-F34
44P/Reinmuth,e,5.8957,286.4197,57.9827,3.687845,0.1391698,0.42669425,175.7960,10/06.0/2025,2000,g  8.3,6.0
# From MPEC 2022-O01
45P/Honda-Mrkos-Pajdusakova,e,4.3240,87.6868,327.9512,3.056813,0.1844170,0.81756178,231.9078,10/06.0/2025,2000,g 13.5,8.0
# From MPEC 2024-F91
46P/Wirtanen,e,11.7495,82.1623,356.3508,3.092373,0.1812451,0.65868152,91.5112,10/06.0/2025,2000,g 14.0,6.0
# From MPEC 2025-T80
47P/Ashbrook-Jackson,e,13.0392,356.8810,357.9184,4.116869,0.1179923,0.31806025,357.4035,10/06.0/2025,2000,g  1.0,11.2
# From MPEC 2025-T80
48P/Johnson,e,12.2017,110.0640,216.7814,3.499150,0.1505776,0.42652068,32.7275,10/06.0/2025,2000,g 10.0,6.0
# From MPEC 2025-ST8
49P/Arend-Rigaux,e,19.0598,118.7910,332.9240,3.569065,0.1461748,0.59896186,26.0777,10/06.0/2025,2000,g 11.3,4.4
# From MPEC 2025-ST8
50P/Arend,e,19.1008,355.1444,49.3076,4.086112,0.1193270,0.52962793,61.0257,10/06.0/2025,2000,g  9.5,6.0
# From MPEC 2023-J29
51P/Harrington,e,5.4263,83.6579,269.2270,3.705411,0.1381814,0.54270236,152.2102,10/06.0/2025,2000,g 10.0,8.0
# From NK 3014
51P-A/Harrington,e,5.4261,269.2270,83.6379,3.706646,0.1381123,0.54289700,151.7776,10/06.0/2025,2000,g 10.0,8.0
# From MPEC 2023-J29
51P-D/Harrington,e,5.4268,83.6462,269.2451,3.705762,0.1381617,0.54283250,152.1301,10/06.0/2025,2000,g 16.0,8.0
# From MPEC 2023-XP6
52P/Harrington-Abell,e,10.2395,336.7467,139.6305,3.861871,0.1298696,0.54117908,189.6697,10/06.0/2025,2000,g 13.5,6.0
# From MPEC 2023-TM6
53P/VanBiesbroeck,e,6.6031,148.8508,134.3264,5.440145,0.0776763,0.54981035,268.5908,10/06.0/2025,2000,g  7.7,4.8
# From MPEC 2024-YC7
54P/deVico-Swift-NEAT,e,6.0635,358.6330,2.2347,3.794359,0.1333510,0.42774425,52.8828,10/06.0/2025,2000,g 10.0,6.0
# From MPC 31070
55P/Tempel-Tuttle,e,162.4778,235.4079,172.5030,10.33446,0.0296669,0.90578967,299.0449,10/06.0/2025,2000,g 10.0,10.0
# From MPEC 2023-TM6
56P/Slaughter-Burnham,e,8.1550,345.8782,44.2329,5.062889,0.0865180,0.50826189,290.3902,10/06.0/2025,2000,g  8.5,6.0
# From MPEC 2025-R69
57P/duToit-Neujmin-Delporte,e,2.8541,188.7202,115.0746,3.440400,0.1544510,0.50160120,224.0308,10/06.0/2025,2000,g 12.5,6.0
# From MPEC 2024-A43
58P/Jackson-Neujmin,e,13.0853,159.0332,200.5831,4.091610,0.1190866,0.66151802,233.2410,10/06.0/2025,2000,g 15.5,6.0
# From MPEC 2023-A50
59P/Kearns-Kwee,e,9.3569,312.7268,127.6867,4.478545,0.1039917,0.47704388,267.2882,10/06.0/2025,2000,g  7.0,6.0
# From MPC182887
60P/Tsuchinshan,e,3.5798,267.3955,216.9113,3.529387,0.1486467,0.53371346,11.5048,10/06.0/2025,2000,g 11.5,6.0
# From MPEC 2024-JU4
61P/Shajn-Schaldach,e,5.9962,162.9585,221.7163,3.690939,0.1389949,0.42292205,149.9405,10/06.0/2025,2000,g  6.0,10.0
# From MPC182887
62P/Tsuchinshan,e,4.7366,68.6642,47.3385,3.371310,0.1592231,0.62474066,103.6141,10/06.0/2025,2000,g  8.0,10.0
# From MPC 84320
63P/Wild,e,19.6162,357.7349,168.7794,5.655847,0.0732753,0.65091716,339.9815,10/06.0/2025,2000,g 10.5,6.0
# From MPEC 2024-A43
64P/Swift-Gehrels,e,8.9545,299.7649,97.3425,4.452203,0.1049160,0.68833830,264.8243,10/06.0/2025,2000,g  9.5,12.0
# From MPEC 2025-T80
65P/Gunn,e,9.1751,61.9738,213.6602,3.891743,0.1283772,0.24809581,14.3267,10/06.0/2025,2000,g  5.0,6.0
# From MPEC 2021-F20
